[
    {
        "Altitude(m)": 607895.8186814289,
        "Argument of Periapsis(deg)": 0.0,
        "Eccentricity": 0.0,
        "Inclination(deg)": 60.0,
        "Latitude(deg)": 40.998343104212495,
        "Longitude(deg)": 5.088558183295706,
        "Mean Anomaly(deg)": -229.09089999999998,
        "RAAN(deg)": 315.0,
        "Satellite Name": "Test1 1394",
        "Satellite Number": 1394,
        "Semi-Major Axis(m)": 6980739.136638005,
        "Time(s)": 0
    },
    {
        "Altitude(m)": 607795.131844826,
        "Argument of Periapsis(deg)": 0.00010418945913296404,
        "Eccentricity": 0.0,
        "Inclination(deg)": 60.0,
        "Latitude(deg)": 40.530668240955976,
        "Longitude(deg)": 5.585153478118447,
        "Mean Anomaly(deg)": -228.47079385453813,
        "RAAN(deg)": 314.99957995086027,
        "Satellite Name": "Test1 1394",
        "Satellite Number": 1394,
        "Semi-Major Axis(m)": 6980739.136638005,
        "Time(s)": 10
    }
]